{
  "type": "FeatureCollection",
  "features": [
    {
      "type": "Feature",
      "properties": {
        "norad_id": 37836,
        "name": "EUTELSAT 16A",
        "group": "eutelsat",
        "lat": 0.053970264063683125,
        "lon": 47.16457703447127,
        "alt_km": 35806.225802982975,
        "timestamp": "2025-12-11T20:41:14.758447+00:00",
        "meta_object_name": "EUTELSAT 16A",
        "meta_object_id": "2011-057A",
        "meta_epoch": "2025-12-11T13:35:14.627328",
        "meta_mean_motion": 1.00271853,
        "meta_eccentricity": 0.00060082,
        "meta_inclination": 0.0589,
        "meta_ra_of_asc_node": 7.0595,
        "meta_arg_of_pericenter": 257.5427,
        "meta_mean_anomaly": 35.7328,
        "meta_ephemeris_type": 0,
        "meta_classification_type": "U",
        "meta_norad_cat_id": 37836,
        "meta_element_set_no": 999,
        "meta_rev_at_epoch": 544,
        "meta_bstar": 0,
        "meta_mean_motion_dot": 1.11e-06,
        "meta_mean_motion_ddot": 0,
        "tle_line1": "1 37836U 11057A   25345.56614152  .00000111  00000+0  00000+0 0  9991",
        "tle_line2": "2 37836   0.0589   7.0595 0006008 257.5427  35.7328  1.00271853  5441"
      },
      "geometry": {
        "type": "Point",
        "coordinates": [
          47.16457703447127,
          0.053970264063683125
        ]
      }
    },
    {
      "type": "Feature",
      "properties": {
        "norad_id": 38992,
        "name": "EUTELSAT 21B",
        "group": "eutelsat",
        "lat": 0.06741332452790431,
        "lon": 52.74233515185256,
        "alt_km": 35797.21499649926,
        "timestamp": "2025-12-11T20:41:14.758458+00:00",
        "meta_object_name": "EUTELSAT 21B",
        "meta_object_id": "2012-062B",
        "meta_epoch": "2025-12-11T13:36:51.971616",
        "meta_mean_motion": 1.00271966,
        "meta_eccentricity": 0.00033294,
        "meta_inclination": 0.0665,
        "meta_ra_of_asc_node": 3.3539,
        "meta_arg_of_pericenter": 266.6326,
        "meta_mean_anomaly": 36.3517,
        "meta_ephemeris_type": 0,
        "meta_classification_type": "U",
        "meta_norad_cat_id": 38992,
        "meta_element_set_no": 999,
        "meta_rev_at_epoch": 4794,
        "meta_bstar": 0,
        "meta_mean_motion_dot": 1.37e-06,
        "meta_mean_motion_ddot": 0,
        "tle_line1": "1 38992U 12062B   25345.56726819  .00000137  00000+0  00000+0 0  9994",
        "tle_line2": "2 38992   0.0665   3.3539 0003329 266.6326  36.3517  1.00271966 47942"
      },
      "geometry": {
        "type": "Point",
        "coordinates": [
          52.74233515185256,
          0.06741332452790431
        ]
      }
    },
    {
      "type": "Feature",
      "properties": {
        "norad_id": 39020,
        "name": "EUTELSAT 70B",
        "group": "eutelsat",
        "lat": 0.07011763453949982,
        "lon": 101.61423879263043,
        "alt_km": 35800.943287650975,
        "timestamp": "2025-12-11T20:41:14.758470+00:00",
        "meta_object_name": "EUTELSAT 70B",
        "meta_object_id": "2012-069A",
        "meta_epoch": "2025-12-11T08:42:27.382752",
        "meta_mean_motion": 1.00271829,
        "meta_eccentricity": 0.00043647,
        "meta_inclination": 0.063,
        "meta_ra_of_asc_node": 342.5267,
        "meta_arg_of_pericenter": 262.743,
        "meta_mean_anomaly": 36.1894,
        "meta_ephemeris_type": 0,
        "meta_classification_type": "U",
        "meta_norad_cat_id": 39020,
        "meta_element_set_no": 999,
        "meta_rev_at_epoch": 4762,
        "meta_bstar": 0,
        "meta_mean_motion_dot": -3.7e-07,
        "meta_mean_motion_ddot": 0,
        "tle_line1": "1 39020U 12069A   25345.36281693 -.00000037  00000+0  00000+0 0  9998",
        "tle_line2": "2 39020   0.0630 342.5267 0004364 262.7430  36.1894  1.00271829 47625"
      },
      "geometry": {
        "type": "Point",
        "coordinates": [
          101.61423879263043,
          0.07011763453949982
        ]
      }
    },
    {
      "type": "Feature",
      "properties": {
        "norad_id": 39122,
        "name": "EUTELSAT 117 WEST A",
        "group": "eutelsat",
        "lat": -0.02988499462848793,
        "lon": -85.67647440968817,
        "alt_km": 35773.84699000501,
        "timestamp": "2025-12-11T20:41:14.758483+00:00",
        "meta_object_name": "EUTELSAT 117 WEST A",
        "meta_object_id": "2013-012A",
        "meta_epoch": "2025-12-11T11:14:33.966816",
        "meta_mean_motion": 1.00271332,
        "meta_eccentricity": 0.00029746,
        "meta_inclination": 0.0138,
        "meta_ra_of_asc_node": 4.2554,
        "meta_arg_of_pericenter": 258.9766,
        "meta_mean_anomaly": 229.0323,
        "meta_ephemeris_type": 0,
        "meta_classification_type": "U",
        "meta_norad_cat_id": 39122,
        "meta_element_set_no": 999,
        "meta_rev_at_epoch": 4655,
        "meta_bstar": 0,
        "meta_mean_motion_dot": -6e-08,
        "meta_mean_motion_ddot": 0,
        "tle_line1": "1 39122U 13012A   25345.46844869 -.00000006  00000+0  00000+0 0  9997",
        "tle_line2": "2 39122   0.0138   4.2554 0002974 258.9766 229.0323  1.00271332 46556"
      },
      "geometry": {
        "type": "Point",
        "coordinates": [
          -85.67647440968817,
          -0.02988499462848793
        ]
      }
    },
    {
      "type": "Feature",
      "properties": {
        "norad_id": 39163,
        "name": "EUTELSAT 7B",
        "group": "eutelsat",
        "lat": 0.03806817531140705,
        "lon": 38.16819292813772,
        "alt_km": 35783.08604322162,
        "timestamp": "2025-12-11T20:41:14.758495+00:00",
        "meta_object_name": "EUTELSAT 7B",
        "meta_object_id": "2013-022A",
        "meta_epoch": "2025-12-11T13:32:37.377600",
        "meta_mean_motion": 1.00272561,
        "meta_eccentricity": 0.00046066,
        "meta_inclination": 0.0725,
        "meta_ra_of_asc_node": 19.1801,
        "meta_arg_of_pericenter": 297.3227,
        "meta_mean_anomaly": 334.1679,
        "meta_ephemeris_type": 0,
        "meta_classification_type": "U",
        "meta_norad_cat_id": 39163,
        "meta_element_set_no": 999,
        "meta_rev_at_epoch": 4607,
        "meta_bstar": 0,
        "meta_mean_motion_dot": 5.5e-07,
        "meta_mean_motion_ddot": 0,
        "tle_line1": "1 39163U 13022A   25345.56432150  .00000055  00000+0  00000+0 0  9993",
        "tle_line2": "2 39163   0.0725  19.1801 0004606 297.3227 334.1679  1.00272561 46070"
      },
      "geometry": {
        "type": "Point",
        "coordinates": [
          38.16819292813772,
          0.03806817531140705
        ]
      }
    },
    {
      "type": "Feature",
      "properties": {
        "norad_id": 39612,
        "name": "EXPRESS-AT1",
        "group": "eutelsat",
        "lat": 0.021787473989075653,
        "lon": 87.11040510248762,
        "alt_km": 35787.19388516879,
        "timestamp": "2025-12-11T20:41:14.758507+00:00",
        "meta_object_name": "EXPRESS-AT1",
        "meta_object_id": "2014-010A",
        "meta_epoch": "2025-12-11T15:29:26.191392",
        "meta_mean_motion": 1.00271326,
        "meta_eccentricity": 4.173e-05,
        "meta_inclination": 0.0163,
        "meta_ra_of_asc_node": 298.4962,
        "meta_arg_of_pericenter": 273.1745,
        "meta_mean_anomaly": 157.2829,
        "meta_ephemeris_type": 0,
        "meta_classification_type": "U",
        "meta_norad_cat_id": 39612,
        "meta_element_set_no": 999,
        "meta_rev_at_epoch": 4293,
        "meta_bstar": 0,
        "meta_mean_motion_dot": 8.6e-07,
        "meta_mean_motion_ddot": 0,
        "tle_line1": "1 39612U 14010A   25345.64544203  .00000086  00000+0  00000+0 0  9996",
        "tle_line2": "2 39612   0.0163 298.4962 0000417 273.1745 157.2829  1.00271326 42938"
      },
      "geometry": {
        "type": "Point",
        "coordinates": [
          87.11040510248762,
          0.021787473989075653
        ]
      }
    },
    {
      "type": "Feature",
      "properties": {
        "norad_id": 39613,
        "name": "EXPRESS-AT2",
        "group": "eutelsat",
        "lat": -0.018007744681609414,
        "lon": 170.97336170840242,
        "alt_km": 35787.85878966124,
        "timestamp": "2025-12-11T20:41:14.758519+00:00",
        "meta_object_name": "EXPRESS-AT2",
        "meta_object_id": "2014-010B",
        "meta_epoch": "2025-12-11T14:10:33.743712",
        "meta_mean_motion": 1.00271711,
        "meta_eccentricity": 0.00014336,
        "meta_inclination": 0.0193,
        "meta_ra_of_asc_node": 312.623,
        "meta_arg_of_pericenter": 324.9956,
        "meta_mean_anomaly": 155.4371,
        "meta_ephemeris_type": 0,
        "meta_classification_type": "U",
        "meta_norad_cat_id": 39613,
        "meta_element_set_no": 999,
        "meta_rev_at_epoch": 4261,
        "meta_bstar": 0,
        "meta_mean_motion_dot": -2.74e-06,
        "meta_mean_motion_ddot": 0,
        "tle_line1": "1 39613U 14010B   25345.59066833 -.00000274  00000+0  00000+0 0  9999",
        "tle_line2": "2 39613   0.0193 312.6230 0001433 324.9956 155.4371  1.00271711 42612"
      },
      "geometry": {
        "type": "Point",
        "coordinates": [
          170.97336170840242,
          -0.018007744681609414
        ]
      }
    }
  ]
}